{
    "links": {
        "self": "http://www.neowsapp.com/rest/v1/neo/3717049?api_key=iIulBulltgU6a56xZRHN4H3l9WmuAYTsLGpBGhQ2"
    },
    "id": "3717049",
    "neo_reference_id": "3717049",
    "name": "(2015 HJ10)",
    "designation": "2015 HJ10",
    "nasa_jpl_url": "http://ssd.jpl.nasa.gov/sbdb.cgi?sstr=3717049",
    "absolute_magnitude_h": 25.2,
    "estimated_diameter": {
        "kilometers": {
            "estimated_diameter_min": 0.0242412481,
            "estimated_diameter_max": 0.0542050786
        },
        "meters": {
            "estimated_diameter_min": 24.2412481101,
            "estimated_diameter_max": 54.2050786336
        },
        "miles": {
            "estimated_diameter_min": 0.0150628086,
            "estimated_diameter_max": 0.0336814639
        },
        "feet": {
            "estimated_diameter_min": 79.5316564495,
            "estimated_diameter_max": 177.8381901842
        }
    },
    "is_potentially_hazardous_asteroid": false,
    "close_approach_data": [
        {
            "close_approach_date": "2015-04-11",
            "close_approach_date_full": "2015-Apr-11 08:57",
            "epoch_date_close_approach": 1428742620000,
            "relative_velocity": {
                "kilometers_per_second": "10.2653277988",
                "kilometers_per_hour": "36955.1800756642",
                "miles_per_hour": "22962.5117531259"
            },
            "miss_distance": {
                "astronomical": "0.2638077293",
                "lunar": "102.6212066977",
                "kilometers": "39465074.392816591",
                "miles": "24522460.1061113158"
            },
            "orbiting_body": "Earth"
        }
    ],
    "orbital_data": {
        "orbit_id": "3",
        "orbit_determination_date": "2017-04-06 08:34:11",
        "first_observation_date": "2015-04-18",
        "last_observation_date": "2015-04-22",
        "data_arc_in_days": 4,
        "observations_used": 12,
        "orbit_uncertainty": "9",
        "minimum_orbit_intersection": ".26043",
        "jupiter_tisserand_invariant": "4.588",
        "epoch_osculation": "2457132.5",
        "eccentricity": ".133940828271639",
        "semi_major_axis": "1.441726751842479",
        "inclination": "20.20800061974357",
        "ascending_node_longitude": "22.46810594617579",
        "orbital_period": "632.2995350161261",
        "perihelion_distance": "1.248620676559318",
        "perihelion_argument": "152.9551261340278",
        "aphelion_distance": "1.634832827125641",
        "perihelion_time": "2457087.965236431203",
        "mean_anomaly": "25.35588593206545",
        "mean_motion": ".5693504107840576",
        "equinox": "J2000",
        "orbit_class": {
            "orbit_class_type": "AMO",
            "orbit_class_description": "Near-Earth asteroid orbits similar to that of 1221 Amor",
            "orbit_class_range": "1.017 AU < q (perihelion) < 1.3 AU"
        }
    },
    "is_sentry_object": false
}